<?xml version="1.0" encoding="UTF-8"?>
<kml xmlns="http://www.opengis.net/kml/2.2">
  <Document>
    <name>Survey Site Alpha</name>
    <description>Sample geospatial survey containing polygon, line, and point features.</description>
    
    <!-- Feature 1: Central Park Polygon -->
    <Placemark>
      <name>Central City Park</name>
      <description>Urban green space zone</description>
      <ExtendedData>
        <Data name="zone_type"><value>Park</value></Data>
        <Data name="capacity"><value>5000</value></Data>
      </ExtendedData>
      <Polygon>
        <outerBoundaryIs>
          <LinearRing>
            <coordinates>
              77.5945,12.9716,0
              77.5995,12.9716,0
              77.5995,12.9766,0
              77.5945,12.9766,0
              77.5945,12.9716,0
            </coordinates>
          </LinearRing>
        </outerBoundaryIs>
      </Polygon>
    </Placemark>
    
    <!-- Feature 2: Main Boulevard LineString -->
    <Placemark>
      <name>Grand Expressway</name>
      <description>Primary arterial highway corridor</description>
      <ExtendedData>
        <Data name="lanes"><value>4</value></Data>
      </ExtendedData>
      <LineString>
        <coordinates>
          77.5900,12.9700,0
          77.5950,12.9730,0
          77.6000,12.9780,0
        </coordinates>
      </LineString>
    </Placemark>
    
    <!-- Feature 3: Weather Monitoring Station Point -->
    <Placemark>
      <name>Weather Station #1</name>
      <description>Environmental telemetry sensor</description>
      <Point>
        <coordinates>77.5970,12.9740,15</coordinates>
      </Point>
    </Placemark>
    
  </Document>
</kml>
